NORAD_CAT_ID,OBJECT_NAME,OBJECT_TYPE,EPOCH,MEAN_MOTION,ECCENTRICITY,INCLINATION,RA_OF_ASC_NODE,ARG_OF_PERICENTER,MEAN_ANOMALY,BSTAR,MEAN_MOTION_DOT,MEAN_MOTION_DDOT,TLE_LINE0,TLE_LINE1,TLE_LINE2,SEMIMAJOR_AXIS,PERIOD,APOGEE,PERIGEE,DECAYED
53289.0,STARLINK-4176,PAYLOAD,2022-09-08 14:00:01,15.73184063,0.0002141,53.2174,175.4234,19.9189,280.1316,0.00034977,0.00048722,0.0,0 STARLINK-4176,1 53289U 22086AZ  22251.58334491  .00048722  00000-0  34977-3 0  9990,2 53289  53.2174 175.4234 0002141  19.9189 280.1316 15.73184063  1305,6727.941,91.534,351.246,348.365,0.0
53289.0,STARLINK-4176,PAYLOAD,2022-09-08 22:00:00,15.73279835,0.0002141,53.2175,173.7746,18.2912,10.6855,-0.00058143,-0.0008172,0.0,0 STARLINK-4176,1 53289U 22086AZ  22251.91667824 -.00081720  00000-0 -58143-3 0  9994,2 53289  53.2175 173.7746 0002141  18.2912  10.6855 15.73279835  1307,6727.668000000002,91.529,350.973,348.092,0.0
53289.0,STARLINK-4176,PAYLOAD,2022-09-09 14:00:01,15.73198724,0.0002085,53.217,170.4749,23.4375,183.4611,8.371299999999999e-05,0.00011143,0.0,0 STARLINK-4176,1 53289U 22086AZ  22252.58334491  .00011143  00000-0  83713-4 0  9991,2 53289  53.2170 170.4749 0002085  23.4375 183.4611 15.73198724  1303,6727.899,91.533,351.167,348.361,0.0
53289.0,STARLINK-4176,PAYLOAD,2022-09-09 22:00:00,15.73188956,0.0002195999999999,53.2172,168.8263,28.8622,266.9745,0.00017115,0.00023456,0.0,0 STARLINK-4176,1 53289U 22086AZ  22252.91667824  .00023456  00000-0  17115-3 0  9999,2 53289  53.2172 168.8263 0002196  28.8622 266.9745 15.73188956  1305,6727.927,91.534,351.269,348.314,0.0
53289.0,STARLINK-4176,PAYLOAD,2022-09-10 12:00:00,15.73213044,0.0002098,53.2176,165.9395,26.1996,335.2593,-7.8503e-06,-1.724e-05,0.0,0 STARLINK-4176,1 53289U 22086AZ  22253.50001157 -.00001724  00000-0 -78503-5 0  9992,2 53289  53.2176 165.9395 0002098  26.1996 335.2593 15.73213044  8179,6727.858,91.532,351.134,348.311,0.0
53289.0,STARLINK-4176,PAYLOAD,2022-09-10 14:00:01,15.73163485,0.0002073,53.2176,165.5268,24.926,88.7688,0.00060234,0.00084641,0.0,0 STARLINK-4176,1 53289U 22086AZ  22253.58334491  .00084641  00000-0  60234-3 0  9997,2 53289  53.2176 165.5268 0002073  24.9260  88.7688 15.73163485  1303,6727.999,91.535,351.259,348.47,0.0
53289.0,STARLINK-4176,PAYLOAD,2022-09-10 22:00:00,15.73251113,0.0002214,53.2176,163.8783,27.6406,174.9627,-0.00083594,-0.00116598,0.0,0 STARLINK-4176,1 53289U 22086AZ  22253.91667824 -.00116598  00000-0 -83594-3 0  9996,2 53289  53.2176 163.8783 0002214  27.6406 174.9627 15.73251113  1302,6727.749,91.53,351.10400000000016,348.125,0.0
53289.0,STARLINK-4176,PAYLOAD,2022-09-11 06:00:00,15.73150932,0.0002315,53.2169,162.2298,23.8739,267.6984,0.00052499,0.00073556,0.0,0 STARLINK-4176,1 53289U 22086AZ  22254.25001157  .00073556  00000-0  52499-3 0  9999,2 53289  53.2169 162.2298 0002315  23.8739 267.6984 15.73150932  8295,6728.035,91.536,351.458,348.343,0.0
53289.0,STARLINK-4176,PAYLOAD,2022-09-11 14:00:01,15.73179623,0.0001996999999999,53.2168,160.5784,27.6827,352.7959,0.0006683,0.00094149,0.0,0 STARLINK-4176,1 53289U 22086AZ  22254.58334491  .00094149  00000-0  66830-3 0  9990,2 53289  53.2168 160.5784 0001997  27.6827 352.7959 15.73179623  1301,6727.953,91.534,351.162,348.475,0.0
53289.0,STARLINK-4176,PAYLOAD,2022-09-11 22:00:00,15.73246054,0.00021,53.2171,158.93,29.4383,79.9861,-0.00023047,-0.00032907,0.0,0 STARLINK-4176,1 53289U 22086AZ  22254.91667824 -.00032907  00000-0 -23047-3 0  9995,2 53289  53.2171 158.9300 0002100  29.4383  79.9861 15.73246054  8405,6727.764,91.531,351.042,348.216,0.0
53289.0,STARLINK-4176,PAYLOAD,2022-09-12 06:00:00,15.73222491,0.0002236,53.2167,157.2816,27.3146,171.0334,-0.00042987,-0.00060583,0.0,0 STARLINK-4176,1 53289U 22086AZ  22255.25001157 -.00060583  00000-0 -42987-3 0  9999,2 53289  53.2167 157.2816 0002236  27.3146 171.0334 15.73222491  8451,6727.831,91.532,351.2,348.19199999999995,0.0
53289.0,STARLINK-4176,PAYLOAD,2022-09-12 14:00:01,15.73127784,0.0002088,53.217,155.6301,32.7126,254.5785,0.00069142,0.00097248,0.0,0 STARLINK-4176,1 53289U 22086AZ  22255.58334491  .00097248  00000-0  69142-3 0  9993,2 53289  53.2170 155.6301 0002088  32.7126 254.5785 15.73127784  1302,6728.101,91.537,351.371,348.561,0.0
53289.0,STARLINK-4176,PAYLOAD,2022-09-12 22:00:00,15.73209115,0.0002206,53.2169,153.9818,32.8021,343.3676,0.00024986,0.00034606,0.0,0 STARLINK-4176,1 53289U 22086AZ  22255.91667824  .00034606  00000-0  24986-3 0  9995,2 53289  53.2169 153.9818 0002206  32.8021 343.3676 15.73209115  8550,6727.869000000002,91.533,351.218,348.25,0.0
53289.0,STARLINK-4176,PAYLOAD,2022-09-13 14:00:01,15.7319206,0.0001796,53.2161,150.6813,24.6688,169.4453,0.000301,0.0004182,0.0,0 STARLINK-4176,1 53289U 22086AZ  22256.58334491  .00041820  00000-0  30100-3 0  9991,2 53289  53.2161 150.6813 0001796  24.6688 169.4453 15.73192060  1308,6727.918000000002,91.534,350.991,348.574,0.0
53289.0,STARLINK-4176,PAYLOAD,2022-09-13 16:00:00,15.73182283,0.0001786999999999,53.2163,150.2685,27.4758,278.8756,0.00053449,0.00075009,0.0,0 STARLINK-4176,1 53289U 22086AZ  22256.66667824  .00075009  00000-0  53449-3 0  9996,2 53289  53.2163 150.2685 0001787  27.4758 278.8756 15.73182283  8676,6727.946,91.534,351.01300000000015,348.608,0.0
53289.0,STARLINK-4176,PAYLOAD,2022-09-13 22:00:00,15.73323426,0.0001803,53.2165,149.0238,26.0558,256.9807,-0.0019764,-0.00270713,0.0,0 STARLINK-4176,1 53289U 22086AZ  22256.91667824 -.00270713  00000-0 -19764-2 0  9996,2 53289  53.2165 149.0238 0001803  26.0558 256.9807 15.73323426  1303,6727.543000000002,91.526,350.621,348.195,0.0
53289.0,STARLINK-4176,PAYLOAD,2022-09-14 06:00:00,15.73199869,0.0002139,53.2161,147.3844,27.4403,344.4814,-0.00010893,-0.00015881,0.0,0 STARLINK-4176,1 53289U 22086AZ  22257.25001157 -.00015881  00000-0 -10893-3 0  9993,2 53289  53.2161 147.3844 0002139  27.4403 344.4814 15.73199869  8760,6727.896,91.533,351.2,348.321,0.0
53289.0,STARLINK-4176,PAYLOAD,2022-09-14 14:00:01,15.73128266,0.0001993,53.2164,145.7329,36.9769,63.8743,0.00073874,0.00104032,0.0,0 STARLINK-4176,1 53289U 22086AZ  22257.58334491  .00104032  00000-0  73874-3 0  9992,2 53289  53.2164 145.7329 0001993  36.9769  63.8743 15.73128266  1309,6728.1,91.537,351.306,348.624,0.0
53289.0,STARLINK-4176,PAYLOAD,2022-09-14 22:00:00,15.73203137,0.0002150999999999,53.2164,144.085,34.7264,155.0113,0.00028184,0.00039126,0.0,0 STARLINK-4176,1 53289U 22086AZ  22257.91667824  .00039126  00000-0  28184-3 0  9993,2 53289  53.2164 144.0850 0002151  34.7264 155.0113 15.73203137  1309,6727.886,91.533,351.1980000000001,348.30400000000014,0.0
53289.0,STARLINK-4176,PAYLOAD,2022-09-15 06:00:00,15.73282438,0.0002130999999999,53.2159,142.4356,30.8164,247.8707,-0.00040905,-0.00057844,0.0,0 STARLINK-4176,1 53289U 22086AZ  22258.25001157 -.00057844  00000-0 -40905-3 0  9996,2 53289  53.2159 142.4356 0002131  30.8164 247.8707 15.73282438  8925,6727.66,91.528,350.959,348.091,0.0
53289.0,STARLINK-4176,PAYLOAD,2022-09-15 14:00:01,15.73224361,0.0001859,53.2159,140.7842,35.0197,332.6777,7.8135e-05,0.0001036999999999,0.0,0 STARLINK-4176,1 53289U 22086AZ  22258.58334491  .00010370  00000-0  78135-4 0  9990,2 53289  53.2159 140.7842 0001859  35.0197 332.6777 15.73224361  1301,6727.826,91.532,350.941,348.44,0.0
53289.0,STARLINK-4176,PAYLOAD,2022-09-15 22:00:00,15.73250707,0.0002018,53.2161,139.1363,32.632,64.025,-0.00049019,-0.00069009,0.0,0 STARLINK-4176,1 53289U 22086AZ  22258.91667824 -.00069009  00000-0 -49019-3 0  9999,2 53289  53.2161 139.1363 0002018  32.6320  64.0250 15.73250707  1308,6727.751,91.53,350.973,348.2580000000001,0.0
53289.0,STARLINK-4176,PAYLOAD,2022-09-16 06:00:00,15.73225024,0.0002026999999999,53.2161,137.487,29.6806,155.8946,-0.00052785,-0.00074138,0.0,0 STARLINK-4176,1 53289U 22086AZ  22259.25001157 -.00074138  00000-0 -52785-3 0  9991,2 53289  53.2161 137.4870 0002027  29.6806 155.8946 15.73225024  9085,6727.824000000001,91.532,351.05300000000005,348.325,0.0
53289.0,STARLINK-4176,PAYLOAD,2022-09-16 14:00:01,15.73152827,0.0001855,53.2165,135.8355,34.4782,240.0231,7.1506e-05,9.406e-05,0.0,0 STARLINK-4176,1 53289U 22086AZ  22259.58334491  .00009406  00000-0  71506-4 0  9994,2 53289  53.2165 135.8355 0001855  34.4782 240.0231 15.73152827  1305,6728.03,91.536,351.14300000000014,348.647,0.0
53289.0,STARLINK-4176,PAYLOAD,2022-09-16 22:00:00,15.73149858,0.0002024,53.2166,134.1881,30.4812,332.8838,0.00021539,0.00029651,0.0,0 STARLINK-4176,1 53289U 22086AZ  22259.91667824  .00029651  00000-0  21539-3 0  9994,2 53289  53.2166 134.1881 0002024  30.4812 332.8838 15.73149858  9188,6728.038000000001,91.536,351.265,348.541,0.0
53289.0,STARLINK-4176,PAYLOAD,2022-09-17 14:00:01,15.73204617,0.0001715,53.2164,130.8875,32.4325,148.7275,0.00048454,0.00067948,0.0,0 STARLINK-4176,1 53289U 22086AZ  22260.58334491  .00067948  00000-0  48454-3 0  9996,2 53289  53.2164 130.8875 0001715  32.4325 148.7275 15.73204617  1309,6727.882,91.533,350.901,348.593,0.0
53289.0,STARLINK-4176,PAYLOAD,2022-09-17 22:00:00,15.73236492,0.0001916999999999,53.2166,129.2396,26.195,243.9353,-0.00022831,-0.00032591,0.0,0 STARLINK-4176,1 53289U 22086AZ  22260.91667824 -.00032591  00000-0 -22831-3 0  9991,2 53289  53.2166 129.2396 0001917  26.1950 243.9353 15.73236492  1300,6727.791,91.531,350.946,348.366,0.0
53289.0,STARLINK-4176,PAYLOAD,2022-09-18 14:00:01,15.73207808,0.0001756,53.2171,125.9389,30.5106,57.6058,0.0001102,0.00014878,0.0,0 STARLINK-4176,1 53289U 22086AZ  22261.58335648  .00014878  00000-0  11020-3 0  9995,2 53289  53.2171 125.9389 0001756  30.5106  57.6058 15.73207808  1305,6727.873000000001,91.533,350.9190000000001,348.556,0.0
53289.0,STARLINK-4176,PAYLOAD,2022-09-18 22:00:00,15.73197015,0.0001973,53.2171,124.2914,24.9941,152.0244,0.00010418,0.00014023,0.0,0 STARLINK-4176,1 53289U 22086AZ  22261.91667824  .00014023  00000-0  10418-3 0  9998,2 53289  53.2171 124.2914 0001973  24.9941 152.0244 15.73197015  1301,6727.904,91.533,351.096,348.441,0.0
